GPS BIIR-5  (PRN 22)    
1 26407U 00040A   26156.82423830  .00000036  00000+0  00000+0 0  9990
2 26407  54.8528 215.6138 0121182 302.4136  56.9858  2.00557638189727
GPS BIIR-8  (PRN 16)    
1 27663U 03005A   26156.17365639  .00000035  00000+0  00000+0 0  9998
2 27663  54.8839 215.4464 0147933  53.0561 332.4546  2.00561259171079
GPS BIIR-11 (PRN 19)    
1 28190U 04009A   26156.46552035 -.00000033  00000+0  00000+0 0  9998
2 28190  54.8398 276.1610 0115636 172.5952 217.0572  2.00555178162719
GPS BIIR-13 (PRN 02)    
1 28474U 04045A   26156.35986913 -.00000064  00000+0  00000+0 0  9991
2 28474  55.1438 325.3724 0169801 316.0991  62.2229  2.00555478158196
GPS BIIRM-1 (PRN 17)    
1 28874U 05038A   26156.46950455 -.00000031  00000+0  00000+0 0  9996
2 28874  54.8880 273.6506 0127802 296.0738 124.6313  2.00566553151603
GPS BIIRM-2 (PRN 31)    
1 29486U 06042A   26156.58180330  .00000084  00000+0  00000+0 0  9999
2 29486  54.7092 151.7997 0106356  54.1396 345.9347  2.00570592144167
GPS BIIRM-3 (PRN 12)    
1 29601U 06052A   26156.45220274  .00000037  00000+0  00000+0 0  9995
2 29601  54.9360 214.4715 0085351  90.7498 270.3097  2.00557585143171
GPS BIIRM-4 (PRN 15)    
1 32260U 07047A   26156.25846299 -.00000012  00000+0  00000+0 0  9998
2 32260  54.0867  80.5574 0166311  87.1523 274.7487  2.00555894136577
GPS BIIRM-5 (PRN 29)    
1 32384U 07062A   26156.55837293 -.00000031  00000+0  00000+0 0  9990
2 32384  55.0414 274.6203 0035514 164.8823 178.8466  2.00559459135272
GPS BIIRM-6 (PRN 07)    
1 32711U 08012A   26156.66938843  .00000084  00000+0  00000+0 0  9992
2 32711  54.4958 150.3848 0211033 247.6982 110.0518  2.00572176133528
GPS BIIRM-8 (PRN 05)    
1 35752U 09043A   26154.43818670 -.00000076  00000+0  00000+0 0  9995
2 35752  56.2018  27.9918 0053658  82.6385 117.0424  2.00555156123083
GPS BIIF-1  (PRN 25)    
1 36585U 10022A   26154.56166646  .00000043  00000+0  00000+0 0  9995
2 36585  54.2712 209.1110 0126411  66.1395 340.8733  2.00561834117320
GPS BIIF-3  (PRN 24)    
1 38833U 12053A   26156.35062183  .00000076  00000+0  00000+0 0  9995
2 38833  53.5837 144.0842 0179642  65.5892 296.2644  2.00567345 99200
GPS BIIF-4  (PRN 27)    
1 39166U 13023A   26156.21726919 -.00000027  00000+0  00000+0 0  9999
2 39166  54.5137 269.4614 0141623  50.9838 310.2894  2.00563607 95644
GPS BIIF-5  (PRN 30)    
1 39533U 14008A   26156.21877271  .00000077  00000+0  00000+0 0  9993
2 39533  53.6527 149.8078 0084235 231.0785 128.1667  2.00559088 89441
GPS BIIF-6  (PRN 06)    
1 39741U 14026A   26155.99560655 -.00000066  00000+0  00000+0 0  9992
2 39741  56.5044 331.9921 0038274 326.7584  33.0058  2.00561982 88296
GPS BIIF-7  (PRN 09)    
1 40105U 14045A   26156.58582858  .00000006  00000+0  00000+0 0  9997
2 40105  55.3460  88.9272 0032842 118.4134 241.9101  2.00557709 85840
GPS BIIF-8  (PRN 03)    
1 40294U 14068A   26155.95813785 -.00000069  00000+0  00000+0 0  9997
2 40294  56.9793  31.4259 0066742  70.1188 290.6558  2.00575574 84961
GPS BIIF-9  (PRN 26)    
1 40534U 15013A   26156.09596329  .00000046  00000+0  00000+0 0  9997
2 40534  53.1687 204.6778 0109301  40.1042 320.7783  2.00552074 81584
GPS BIIF-10 (PRN 08)    
1 40730U 15033A   26156.25475302 -.00000026  00000+0  00000+0 0  9991
2 40730  53.9920 267.5786 0115058  30.1861 330.4960  2.00556964 79754
GPS BIIF-11 (PRN 10)    
1 41019U 15062A   26156.31132485 -.00000068  00000+0  00000+0 0  9999
2 41019  56.9514  31.2688 0111582 231.1680 127.8846  2.00567113 77593
GPS BIIF-12 (PRN 32)    
1 41328U 16007A   26155.90285179  .00000004  00000+0  00000+0 0  9994
2 41328  55.5169  89.9466 0096310 247.3906 111.5783  2.00552419 75593
GPS BIII-1  (PRN 04)    
1 43873U 18109A   26156.85468340  .00000014  00000+0  00000+0 0  9995
2 43873  55.6750  92.6343 0038231 198.2081  23.0022  2.00561264 54844
GPS BIII-2  (PRN 18)    
1 44506U 19056A   26153.44735856 -.00000081  00000+0  00000+0 0  9997
2 44506  55.6403 331.7284 0061230 197.3681 346.8768  2.00569922 49773
GPS BIII-3  (PRN 23)    
1 45854U 20041A   26156.51852449 -.00000070  00000+0  00000+0 0  9997
2 45854  56.6620  29.3967 0063444 204.6335 336.1006  2.00559161 43806
GPS BIII-4  (PRN 14)    
1 46826U 20078A   26156.80354916  .00000041  00000+0  00000+0 0  9992
2 46826  53.9813 211.2406 0073048 206.8740 155.6187  2.00564981 41285
GPS BIII-5  (PRN 11)    
1 48859U 21054A   26156.54127300 -.00000067  00000+0  00000+0 0  9990
2 48859  55.1805 332.9282 0025002 228.5933 130.6656  2.00569989 36510
GPS BIII-6  (PRN 28)    
1 55268U 23009A   26156.74028147  .00000086  00000+0  00000+0 0  9995
2 55268  55.1216 148.9690 0006184 317.6827 223.4166  2.00572353 25017
GPS BIII-7  (PRN 01)    
1 62339U 24242A   26155.87622468 -.00000072  00000+0  00000+0 0  9997
2 62339  54.8548 334.6808 0017380   4.3372 355.2170  2.00571595 11008
GPS BIII-8  (PRN 21)    
1 64202U 25116A   26155.36633038 -.00000073  00000+0  00000+0 0  9999
2 64202  55.2259  31.6468 0008452 337.8257 196.1658  2.00577081  7616
GPS BIII-9  (PRN 20)    
1 67588U 26017A   26156.23183609  .00000004  00000+0  00000+0 0  9994
2 67588  55.0812  89.2351 0022664 257.5579 102.1794  2.00571538431378
GPS BIII-10 (PRN 13)    
1 68791U 26087A   26156.43970228  .00000045  00000+0  00000+0 0  9996
2 68791  54.9639 208.2526 0020960 107.2589 248.2165  2.00569475   593
